{
  "type": "FeatureCollection",
  "features": [
    {
      "type": "Feature",
      "properties": {
        "norad_id": 33376,
        "name": "GALAXY 19 (G-19)",
        "group": "intelsat",
        "lat": -0.005507701901967795,
        "lon": 127.55916357618975,
        "alt_km": 35796.74979691317,
        "timestamp": "2025-12-26T08:37:54.237459+00:00",
        "meta_object_name": "GALAXY 19 (G-19)",
        "meta_object_id": "2008-045A",
        "meta_epoch": "2025-12-26T04:39:22.088160",
        "meta_mean_motion": 1.00271724,
        "meta_eccentricity": 0.0002782,
        "meta_inclination": 0.0391,
        "meta_ra_of_asc_node": 264.5488,
        "meta_arg_of_pericenter": 17.709,
        "meta_mean_anomaly": 145.525,
        "meta_ephemeris_type": 0,
        "meta_classification_type": "U",
        "meta_norad_cat_id": 33376,
        "meta_element_set_no": 999,
        "meta_rev_at_epoch": 6316,
        "meta_bstar": 0,
        "meta_mean_motion_dot": -1.17e-06,
        "meta_mean_motion_ddot": 0,
        "tle_line1": "1 33376U 08045A   25360.19400565 -.00000117  00000+0  00000+0 0  9993",
        "tle_line2": "2 33376   0.0391 264.5488 0002782  17.7090 145.5250  1.00271724 63169"
      },
      "geometry": {
        "type": "Point",
        "coordinates": [
          127.55916357618975,
          -0.005507701901967795
        ]
      }
    },
    {
      "type": "Feature",
      "properties": {
        "norad_id": 35493,
        "name": "FM-5",
        "group": "intelsat",
        "lat": 0.006191002135269087,
        "lon": 138.41504697113425,
        "alt_km": 35783.70381820319,
        "timestamp": "2025-12-26T08:37:54.237471+00:00",
        "meta_object_name": "FM-5",
        "meta_object_id": "2009-034A",
        "meta_epoch": "2025-12-25T21:13:02.840160",
        "meta_mean_motion": 1.00269478,
        "meta_eccentricity": 7.9e-05,
        "meta_inclination": 0.0148,
        "meta_ra_of_asc_node": 303.8545,
        "meta_arg_of_pericenter": 217.7513,
        "meta_mean_anomaly": 165.1409,
        "meta_ephemeris_type": 0,
        "meta_classification_type": "U",
        "meta_norad_cat_id": 35493,
        "meta_element_set_no": 999,
        "meta_rev_at_epoch": 4490,
        "meta_bstar": 0,
        "meta_mean_motion_dot": -1.78e-06,
        "meta_mean_motion_ddot": 0,
        "tle_line1": "1 35493U 09034A   25359.88406065 -.00000178  00000+0  00000+0 0  9996",
        "tle_line2": "2 35493   0.0148 303.8545 0000790 217.7513 165.1409  1.00269478 44909"
      },
      "geometry": {
        "type": "Point",
        "coordinates": [
          138.41504697113425,
          0.006191002135269087
        ]
      }
    },
    {
      "type": "Feature",
      "properties": {
        "norad_id": 36097,
        "name": "INTELSAT 14 (IS-14)",
        "group": "intelsat",
        "lat": 0.013301154267200334,
        "lon": 179.54580421692972,
        "alt_km": 35788.3938711155,
        "timestamp": "2025-12-26T08:37:54.237482+00:00",
        "meta_object_name": "INTELSAT 14 (IS-14)",
        "meta_object_id": "2009-064A",
        "meta_epoch": "2025-12-26T00:32:38.586048",
        "meta_mean_motion": 1.00271927,
        "meta_eccentricity": 0.0002608,
        "meta_inclination": 0.0118,
        "meta_ra_of_asc_node": 36.2145,
        "meta_arg_of_pericenter": 245.4938,
        "meta_mean_anomaly": 136.2264,
        "meta_ephemeris_type": 0,
        "meta_classification_type": "U",
        "meta_norad_cat_id": 36097,
        "meta_element_set_no": 999,
        "meta_rev_at_epoch": 5886,
        "meta_bstar": 0,
        "meta_mean_motion_dot": -2.52e-06,
        "meta_mean_motion_ddot": 0,
        "tle_line1": "1 36097U 09064A   25360.02266882 -.00000252  00000+0  00000+0 0  9992",
        "tle_line2": "2 36097   0.0118  36.2145 0002608 245.4938 136.2264  1.00271927 58869"
      },
      "geometry": {
        "type": "Point",
        "coordinates": [
          179.54580421692972,
          0.013301154267200334
        ]
      }
    },
    {
      "type": "Feature",
      "properties": {
        "norad_id": 36106,
        "name": "INTELSAT 15 (IS-15)",
        "group": "intelsat",
        "lat": -0.030110536211027005,
        "lon": -50.262979705188854,
        "alt_km": 35777.100036451106,
        "timestamp": "2025-12-26T08:37:54.237494+00:00",
        "meta_object_name": "INTELSAT 15 (IS-15)",
        "meta_object_id": "2009-067A",
        "meta_epoch": "2025-12-25T23:44:26.930112",
        "meta_mean_motion": 1.00270241,
        "meta_eccentricity": 0.0002418,
        "meta_inclination": 0.0146,
        "meta_ra_of_asc_node": 50.2758,
        "meta_arg_of_pericenter": 236.8564,
        "meta_mean_anomaly": 248.8743,
        "meta_ephemeris_type": 0,
        "meta_classification_type": "U",
        "meta_norad_cat_id": 36106,
        "meta_element_set_no": 999,
        "meta_rev_at_epoch": 3949,
        "meta_bstar": 0,
        "meta_mean_motion_dot": -1.63e-06,
        "meta_mean_motion_ddot": 0,
        "tle_line1": "1 36106U 09067A   25359.98920058 -.00000163  00000+0  00000+0 0  9992",
        "tle_line2": "2 36106   0.0146  50.2758 0002418 236.8564 248.8743  1.00270241 39493"
      },
      "geometry": {
        "type": "Point",
        "coordinates": [
          -50.262979705188854,
          -0.030110536211027005
        ]
      }
    },
    {
      "type": "Feature",
      "properties": {
        "norad_id": 36131,
        "name": "DIRECTV 12",
        "group": "intelsat",
        "lat": 0.011332456006033923,
        "lon": 121.86977519533535,
        "alt_km": 35787.80655888947,
        "timestamp": "2025-12-26T08:37:54.237505+00:00",
        "meta_object_name": "DIRECTV 12",
        "meta_object_id": "2009-075A",
        "meta_epoch": "2025-12-25T14:17:27.635136",
        "meta_mean_motion": 1.00273448,
        "meta_eccentricity": 5.26e-05,
        "meta_inclination": 0.0362,
        "meta_ra_of_asc_node": 165.2057,
        "meta_arg_of_pericenter": 147.3669,
        "meta_mean_anomaly": 253.4343,
        "meta_ephemeris_type": 0,
        "meta_classification_type": "U",
        "meta_norad_cat_id": 36131,
        "meta_element_set_no": 999,
        "meta_rev_at_epoch": 4481,
        "meta_bstar": 0,
        "meta_mean_motion_dot": -8.2e-07,
        "meta_mean_motion_ddot": 0,
        "tle_line1": "1 36131U 09075A   25359.59545874 -.00000082  00000+0  00000+0 0  9995",
        "tle_line2": "2 36131   0.0362 165.2057 0000526 147.3669 253.4343  1.00273448 44812"
      },
      "geometry": {
        "type": "Point",
        "coordinates": [
          121.86977519533535,
          0.011332456006033923
        ]
      }
    },
    {
      "type": "Feature",
      "properties": {
        "norad_id": 36397,
        "name": "INTELSAT 16 (IS-16)",
        "group": "intelsat",
        "lat": 0.017016222843872657,
        "lon": 148.373271692377,
        "alt_km": 35790.676248022595,
        "timestamp": "2025-12-26T08:37:54.237517+00:00",
        "meta_object_name": "INTELSAT 16 (IS-16)",
        "meta_object_id": "2010-006A",
        "meta_epoch": "2025-12-26T00:38:13.355808",
        "meta_mean_motion": 1.0027194,
        "meta_eccentricity": 0.0001985,
        "meta_inclination": 0.0099,
        "meta_ra_of_asc_node": 0.2244,
        "meta_arg_of_pericenter": 271.3681,
        "meta_mean_anomaly": 116.5581,
        "meta_ephemeris_type": 0,
        "meta_classification_type": "U",
        "meta_norad_cat_id": 36397,
        "meta_element_set_no": 999,
        "meta_rev_at_epoch": 5791,
        "meta_bstar": 0,
        "meta_mean_motion_dot": -2.23e-06,
        "meta_mean_motion_ddot": 0,
        "tle_line1": "1 36397U 10006A   25360.02654347 -.00000223  00000+0  00000+0 0  9998",
        "tle_line2": "2 36397   0.0099   0.2244 0001985 271.3681 116.5581  1.00271940 57914"
      },
      "geometry": {
        "type": "Point",
        "coordinates": [
          148.373271692377,
          0.017016222843872657
        ]
      }
    },
    {
      "type": "Feature",
      "properties": {
        "norad_id": 37185,
        "name": "XM-5",
        "group": "intelsat",
        "lat": -0.0016295171569133632,
        "lon": 109.36469086585963,
        "alt_km": 35779.70071241569,
        "timestamp": "2025-12-26T08:37:54.237545+00:00",
        "meta_object_name": "XM-5",
        "meta_object_id": "2010-053A",
        "meta_epoch": "2025-12-26T04:39:38.472192",
        "meta_mean_motion": 1.00272229,
        "meta_eccentricity": 0.0002048,
        "meta_inclination": 0.0643,
        "meta_ra_of_asc_node": 269.1898,
        "meta_arg_of_pericenter": 243.8703,
        "meta_mean_anomaly": 256.5988,
        "meta_ephemeris_type": 0,
        "meta_classification_type": "U",
        "meta_norad_cat_id": 37185,
        "meta_element_set_no": 999,
        "meta_rev_at_epoch": 5574,
        "meta_bstar": 0,
        "meta_mean_motion_dot": -1e-08,
        "meta_mean_motion_ddot": 0,
        "tle_line1": "1 37185U 10053A   25360.19419528 -.00000001  00000+0  00000+0 0  9998",
        "tle_line2": "2 37185   0.0643 269.1898 0002048 243.8703 256.5988  1.00272229 55742"
      },
      "geometry": {
        "type": "Point",
        "coordinates": [
          109.36469086585963,
          -0.0016295171569133632
        ]
      }
    }
  ]
}